FORMOSAT 7-3            
1 44343U 19036E   26068.82630502  .00006445  00000+0  37650-3 0  9997
2 44343  23.9981 141.9797 0001061 150.4425 209.6139 15.08933962368215
STARLINK-3207           
1 49756U 21115AJ  26068.48836627 -.00000203  00000+0  53499-5 0  9997
2 49756  53.2170 140.0239 0001529 103.8178 256.2985 15.08835744235647
