[{"OBJECT_NAME":"FORMOSAT 7-3","OBJECT_ID":"2019-036E","EPOCH":"2026-03-09T19:49:52.754592","MEAN_MOTION":15.08933962,"ECCENTRICITY":0.00010606,"INCLINATION":23.9981,"RA_OF_ASC_NODE":141.9797,"ARG_OF_PERICENTER":150.4425,"MEAN_ANOMALY":209.6139,"EPHEMERIS_TYPE":0,"CLASSIFICATION_TYPE":"U","NORAD_CAT_ID":44343,"ELEMENT_SET_NO":999,"REV_AT_EPOCH":36821,"BSTAR":0.00037650049,"MEAN_MOTION_DOT":6.445e-5,"MEAN_MOTION_DDOT":0},{"OBJECT_NAME":"STARLINK-3207","OBJECT_ID":"2021-115AJ","EPOCH":"2026-03-09T11:43:14.845728","MEAN_MOTION":15.08835744,"ECCENTRICITY":0.00015294,"INCLINATION":53.217,"RA_OF_ASC_NODE":140.0239,"ARG_OF_PERICENTER":103.8178,"MEAN_ANOMALY":256.2985,"EPHEMERIS_TYPE":0,"CLASSIFICATION_TYPE":"U","NORAD_CAT_ID":49756,"ELEMENT_SET_NO":999,"REV_AT_EPOCH":23564,"BSTAR":5.349943e-6,"MEAN_MOTION_DOT":-2.03e-6,"MEAN_MOTION_DDOT":0}]
